{
  "links" : {
    "next" : "https://api.nasa.gov/neo/rest/v1/feed?start_date=2014-11-16&end_date=2014-11-16&detailed=true&api_key=t0TVs3DtDT2H8Oy2Zy8m2eVrNsAVKAexjcZXUckd",
    "prev" : "https://api.nasa.gov/neo/rest/v1/feed?start_date=2014-11-14&end_date=2014-11-14&detailed=true&api_key=t0TVs3DtDT2H8Oy2Zy8m2eVrNsAVKAexjcZXUckd",
    "self" : "https://api.nasa.gov/neo/rest/v1/feed?start_date=2014-11-15&end_date=2014-11-15&detailed=true&api_key=t0TVs3DtDT2H8Oy2Zy8m2eVrNsAVKAexjcZXUckd"
  },
  "element_count" : 14,
  "near_earth_objects" : {
    "2014-11-15" : [ {
      "links" : {
        "self" : "https://api.nasa.gov/neo/rest/v1/neo/3690050?api_key=t0TVs3DtDT2H8Oy2Zy8m2eVrNsAVKAexjcZXUckd"
      },
      "neo_reference_id" : "3690050",
      "name" : "(2014 SN143)",
      "nasa_jpl_url" : "http://ssd.jpl.nasa.gov/sbdb.cgi?sstr=3690050",
      "absolute_magnitude_h" : 20.9,
      "estimated_diameter" : {
        "kilometers" : {
          "estimated_diameter_min" : 0.1756123185,
          "estimated_diameter_max" : 0.3926810818
        },
        "meters" : {
          "estimated_diameter_min" : 175.6123184804,
          "estimated_diameter_max" : 392.6810818086
        },
        "miles" : {
          "estimated_diameter_min" : 0.1091204019,
          "estimated_diameter_max" : 0.2440006365
        },
        "feet" : {
          "estimated_diameter_min" : 576.1559189633,
          "estimated_diameter_max" : 1288.3238004408
        }
      },
      "is_potentially_hazardous_asteroid" : false,
      "close_approach_data" : [ {
        "close_approach_date" : "2014-11-15",
        "epoch_date_close_approach" : 1416038400000,
        "relative_velocity" : {
          "kilometers_per_second" : "3.0431044881",
          "kilometers_per_hour" : "10955.1761570606",
          "miles_per_hour" : "6807.1204293692"
        },
        "miss_distance" : {
          "astronomical" : "0.2636309157",
          "lunar" : "102.5524291992",
          "kilometers" : "39438624",
          "miles" : "24506026"
        },
        "orbiting_body" : "Earth"
      } ],
      "orbital_data" : {
        "orbit_id" : "42",
        "orbit_determination_date" : "2017-04-06 08:38:34",
        "orbit_uncertainty" : "4",
        "minimum_orbit_intersection" : ".238887",
        "jupiter_tisserand_invariant" : "3.901",
        "epoch_osculation" : "2458000.5",
        "eccentricity" : ".3522930496797554",
        "semi_major_axis" : "1.867234325166099",
        "inclination" : "6.328351726892666",
        "ascending_node_longitude" : "201.9157563269553",
        "orbital_period" : "931.9586860743275",
        "perihelion_distance" : "1.209420650286614",
        "perihelion_argument" : "227.9649610549507",
        "aphelion_distance" : "2.525048000045584",
        "perihelion_time" : "2457934.048993092689",
        "mean_anomaly" : "25.66890876611657",
        "mean_motion" : ".3862832176782657",
        "equinox" : "J2000"
      }
    }, {
      "links" : {
        "self" : "https://api.nasa.gov/neo/rest/v1/neo/3759000?api_key=t0TVs3DtDT2H8Oy2Zy8m2eVrNsAVKAexjcZXUckd"
      },
      "neo_reference_id" : "3759000",
      "name" : "(2016 RG17)",
      "nasa_jpl_url" : "http://ssd.jpl.nasa.gov/sbdb.cgi?sstr=3759000",
      "absolute_magnitude_h" : 23.0,
      "estimated_diameter" : {
        "kilometers" : {
          "estimated_diameter_min" : 0.0667659413,
          "estimated_diameter_max" : 0.1492931834
        },
        "meters" : {
          "estimated_diameter_min" : 66.7659413495,
          "estimated_diameter_max" : 149.2931834393
        },
        "miles" : {
          "estimated_diameter_min" : 0.0414864197,
          "estimated_diameter_max" : 0.0927664547
        },
        "feet" : {
          "estimated_diameter_min" : 219.0483710172,
          "estimated_diameter_max" : 489.807047955
        }
      },
      "is_potentially_hazardous_asteroid" : false,
      "close_approach_data" : [ {
        "close_approach_date" : "2014-11-15",
        "epoch_date_close_approach" : 1416038400000,
        "relative_velocity" : {
          "kilometers_per_second" : "20.5609456491",
          "kilometers_per_hour" : "74019.4043367085",
          "miles_per_hour" : "45992.7793224398"
        },
        "miss_distance" : {
          "astronomical" : "0.3745152381",
          "lunar" : "145.6864318848",
          "kilometers" : "56026684",
          "miles" : "34813368"
        },
        "orbiting_body" : "Earth"
      } ],
      "orbital_data" : {
        "orbit_id" : "10",
        "orbit_determination_date" : "2017-04-06 08:24:09",
        "orbit_uncertainty" : "6",
        "minimum_orbit_intersection" : ".0439429",
        "jupiter_tisserand_invariant" : "7.014",
        "epoch_osculation" : "2458000.5",
        "eccentricity" : ".5694000469726017",
        "semi_major_axis" : ".811473868237482",
        "inclination" : "21.98842648421686",
        "ascending_node_longitude" : "170.128530929548",
        "orbital_period" : "266.9993691112638",
        "perihelion_distance" : ".3494206095460209",
        "perihelion_argument" : "29.10615943808801",
        "aphelion_distance" : "1.273527126928943",
        "perihelion_time" : "2458100.848111036764",
        "mean_anomaly" : "224.6988564299537",
        "mean_motion" : "1.348317792653589",
        "equinox" : "J2000"
      }
    } ]
  }
}